SatCatId,ObjectName,LaunchYear,OrbitalPeriod,LaunchMass,StatusCode,Inclination,Status,UcsData,OrbitClassEstimated,LaunchSiteCountry,Owner,UseType,Purpose,LaunchVehicleClass,TLE1,TLE2,MeanMotion,Eccentricity,OrbitClass
18709,COSMOS 1904,1987,104.77,-1.0,UNK,82.91,Inactive,0,LEO,Russia,Russia/USSR,Unknown,Unknown,Unknown,1 18709U 87106A   25282.45811581  .00000057  00000+0  44689-4 0  9995,2 18709  82.9105 256.7939 0028047  23.1863  90.7359 13.74445318895259,13.74445318,0.0028047,LEO
10520,COSMOS 968,1977,100.21,-1.0,UNK,74.03,Inactive,0,LEO,Russia,Russia/USSR,Unknown,Unknown,Unknown,1 10520U 77119A   25282.35115551  .00000221  00000+0  83349-4 0  9993,2 10520  74.0282 239.8041 0017513 179.2336 180.8848 14.36982337502772,14.36982337,0.0017513,LEO
18715,EKRAN 17,1987,1501.85,-1.0,-,13.75,Inactive,0,HEO,Kazakhstan,Russia/USSR,Unknown,Unknown,Unknown,1 18715U 87109A   25282.54587720 -.00000107  00000+0  00000+0 0  9991,2 18715  13.7527 336.5257 0046008 234.3356 112.7316  0.95882506118402,0.95882506,0.0046008,HEO
10529,SS 1,1977,103.6,-1.0,UNK,63.34,Inactive,0,LEO,USA,USA,Unknown,Unknown,Unknown,1 10529U 77112D   25282.54419899  .00000983  00000+0  27200-3 0  9996,2 10529  63.3366 336.9006 0541899 158.9345 203.4990 13.89907354317359,13.89907354,0.0541899,LEO
10531,COSMOS 970,1977,105.89,-1.0,UNK,65.85,Inactive,0,LEO,Kazakhstan,Russia/USSR,Unknown,Unknown,Unknown,1 10531U 77121A   25282.75625044 -.00000076  00000+0  22842-5 0  9996,2 10531  65.8542  43.3704 0150977 316.3006  42.6175 13.59858415765395,13.59858415,0.0150977,LEO
10536,COSMOS 971,1977,104.85,-1.0,UNK,82.93,Inactive,0,LEO,Russia,Russia/USSR,Unknown,Unknown,Unknown,1 10536U 77122A   25282.51455588  .00000062  00000+0  50111-4 0  9993,2 10536  82.9332  71.7390 0021104   3.4972  62.8683 13.73402372394735,13.73402372,0.0021104,LEO
10539,COSMOS 972,1977,103.66,-1.0,UNK,75.83,Inactive,0,LEO,Russia,Russia/USSR,Unknown,Unknown,Unknown,1 10539U 77123A   25282.46454726  .00000037  00000+0  27727-4 0  9993,2 10539  75.8320 125.3617 0301887  23.4559 338.0018 13.89130273421237,13.89130273,0.0301887,LEO
26927,EUTELSAT 12 WEST B,2001,1461.51,-1.0,-,5.98,Inactive,0,GSO,French Guiana,EUTELSAT,Unknown,Unknown,Unknown,1 26927U 01042A   25282.56851288 -.00000067  00000+0  00000+0 0  9997,2 26927   5.9729  73.7714 0007683 198.6710 338.9125  0.98527221 87681,0.98527221,0.0007683,GSO
10544,SS 2,1977,103.54,-1.0,UNK,63.34,Inactive,0,LEO,USA,USA,Unknown,Unknown,Unknown,1 10544U 77112E   25282.50424949  .00000861  00000+0  24042-3 0  9997,2 10544  63.3357 325.1412 0539002 158.7644 203.6738 13.90788487317527,13.90788487,0.0539002,LEO
26930,PICOSAT 9,2001,100.59,-1.0,UNK,67.0,Inactive,0,LEO,USA,USA,Unknown,Unknown,Unknown,1 26930U 01043B   25282.48103529  .00000074  00000+0  59290-4 0  9998,2 26930  66.9987 114.2388 0002190 263.3175  96.7677 14.31483554254846,14.31483554,0.000219,LEO
26932,SAPPHIRE (NO-45),2001,100.62,-1.0,-,67.06,Inactive,0,LEO,USA,USA,Unknown,Unknown,Unknown,1 26932U 01043D   25282.13922071  .00000169  00000+0  95223-4 0  9994,2 26932  67.0555 181.5148 0006335 289.0396  71.0019 14.31187238254461,14.31187238,0.0006335,LEO
26936,RADUGA-1 6,2001,1473.24,-1.0,-,14.37,Inactive,0,GSO,Kazakhstan,Russia/USSR,Unknown,Unknown,Unknown,1 26936U 01045A   25281.28517015 -.00000054  00000+0  00000+0 0  9991,2 26936  14.3634  16.4921 0019990 203.1452 167.1398  0.97743813 86143,0.97743813,0.001999,GSO
18748,COSMOS 1908,1988,92.28,-1.0,UNK,82.45,Inactive,0,LEO,Russia,Russia/USSR,Unknown,Unknown,Unknown,1 18748U 88001A   25282.41261102  .00048471  00000+0  58978-3 0  9994,2 18748  82.4499 265.3831 0008697  99.7309 260.4930 15.60292611 67124,15.60292611,0.0008697,LEO
10557,INTELSAT 4A-F3,1978,1441.34,-1.0,-,9.47,Inactive,0,GSO,USA,INTELSAT,Unknown,Unknown,Unknown,1 10557U 78002A   25282.67771339  .00000102  00000+0  00000+0 0  9998,2 10557   9.4697 314.2988 0005389 275.9698 251.1205  0.99906254 46247,0.99906254,0.0005389,GSO
26957,TES,2001,91.68,-1.0,-,97.83,Inactive,0,LEO,India,India,Unknown,Unknown,Unknown,1 26957U 01049A   25282.55610505  .00094587  00000+0  77049-3 0  9991,2 26957  97.8270 155.7556 0008062 329.9562  30.1236 15.70312828319353,15.70312828,0.0008062,LEO
10581,COSMOS 976,1978,115.08,-1.0,UNK,74.03,Inactive,0,LEO,Russia,Russia/USSR,Unknown,Unknown,Unknown,1 10581U 78005A   25282.38358911 -.00000020  00000+0 -28472-4 0  9992,2 10581  74.0286 248.9565 0004457  90.7121  64.5573 12.51292164173658,12.51292164,0.0004457,LEO
10584,COSMOS 977,1978,114.47,-1.0,UNK,74.03,Inactive,0,LEO,Russia,Russia/USSR,Unknown,Unknown,Unknown,1 10584U 78005B   25282.53491872 -.00000005  00000+0  66603-4 0  9996,2 10584  74.0311 317.8658 0040148 125.3974  32.4063 12.57984585179933,12.57984585,0.0040148,LEO
10585,COSMOS 978,1978,114.68,-1.0,UNK,74.03,Inactive,0,LEO,Russia,Russia/USSR,Unknown,Unknown,Unknown,1 10585U 78005C   25282.43935505 -.00000023  00000+0 -38737-4 0  9990,2 10585  74.0311  57.8050 0029432 249.8342 166.9544 12.55695769177784,12.55695769,0.0029432,LEO
10586,COSMOS 979,1978,114.88,-1.0,UNK,74.03,Inactive,0,LEO,Russia,Russia/USSR,Unknown,Unknown,Unknown,1 10586U 78005D   25282.66494909  .00000008  00000+0  15155-3 0  9993,2 10586  74.0303 153.3291 0017151 347.2100  21.5315 12.53495414175777,12.53495414,0.0017151,LEO
10587,COSMOS 980,1978,115.3,-1.0,UNK,74.03,Inactive,0,LEO,Russia,Russia/USSR,Unknown,Unknown,Unknown,1 10587U 78005E   25282.48197941  .00000002  00000+0  12085-3 0  9993,2 10587  74.0346 350.3974 0007376  55.0193 316.3060 12.48943598171454,12.48943598,0.0007376,LEO
10588,COSMOS 981,1978,115.53,-1.0,UNK,74.03,Inactive,0,LEO,Russia,Russia/USSR,Unknown,Unknown,Unknown,1 10588U 78005F   25282.47964218 -.00000029  00000+0 -89090-4 0  9994,2 10588  74.0274  96.8192 0019923 152.0290 271.7860 12.46462430169140,12.4646243,0.0019923,LEO
10589,COSMOS 982,1978,115.74,-1.0,UNK,74.03,Inactive,0,LEO,Russia,Russia/USSR,Unknown,Unknown,Unknown,1 10589U 78005G   25282.51503605  .00000006  00000+0  15458-3 0  9998,2 10589  74.0318 196.3972 0033684 275.2561 258.7733 12.44133471168423,12.44133471,0.0033684,LEO
10590,COSMOS 983,1978,115.99,-1.0,UNK,74.03,Inactive,0,LEO,Russia,Russia/USSR,Unknown,Unknown,Unknown,1 10590U 78005H   25282.41427000 -.00000008  00000+0  55427-4 0  9997,2 10590  74.0301 308.8703 0046321  32.6267 327.7626 12.41506767163869,12.41506767,0.0046321,LEO
10594,SS 3,1977,102.68,-1.0,UNK,63.33,Inactive,0,LEO,USA,USA,Unknown,Unknown,Unknown,1 10594U 77112F   25282.38786873  .00001021  00000+0  23418-3 0  9990,2 10594  63.3271 168.8612 0512774 159.6268 202.6091 14.02341851332117,14.02341851,0.0512774,LEO
18788,COSMOS 1909,1988,114.03,-1.0,UNK,82.61,Inactive,0,LEO,Russia,Russia/USSR,Unknown,Unknown,Unknown,1 18788U 88002A   25282.48386644  .00000015  00000+0  23960-4 0  9991,2 18788  82.6078  76.8792 0002077 149.1594 265.7833 12.62861756739167,12.62861756,0.0002077,LEO
18789,COSMOS 1910,1988,113.96,-1.0,UNK,82.6,Inactive,0,LEO,Russia,Russia/USSR,Unknown,Unknown,Unknown,1 18789U 88002B   25282.44192056  .00000020  00000+0  52472-4 0  9996,2 18789  82.6025  53.4550 0004817  61.1402   1.4099 12.63625371740206,12.63625371,0.0004817,LEO
18790,COSMOS 1911,1988,113.89,-1.0,UNK,82.61,Inactive,0,LEO,Russia,Russia/USSR,Unknown,Unknown,Unknown,1 18790U 88002C   25282.43137882  .00000019  00000+0  46479-4 0  9991,2 18790  82.6098  48.5002 0006882 350.8876  71.4632 12.64376518741266,12.64376518,0.0006882,LEO
10599,COSMOS 985,1978,104.58,-1.0,UNK,82.94,Inactive,0,LEO,Russia,Russia/USSR,Unknown,Unknown,Unknown,1 10599U 78007A   25282.33891941  .00000082  00000+0  67270-4 0  9998,2 10599  82.9430 214.8432 0052860 174.2486 185.9291 13.76903047397351,13.76903047,0.005286,LEO
18791,COSMOS 1912,1988,113.83,-1.0,UNK,82.61,Inactive,0,LEO,Russia,Russia/USSR,Unknown,Unknown,Unknown,1 18791U 88002D   25282.42230718  .00000021  00000+0  57898-4 0  9993,2 18791  82.6121  38.6884 0009636 316.3446 106.7348 12.65062827742186,12.65062827,0.0009636,LEO
18792,COSMOS 1913,1988,113.77,-1.0,UNK,82.61,Inactive,0,LEO,Russia,Russia/USSR,Unknown,Unknown,Unknown,1 18792U 88002E   25282.50069420  .00000043  00000+0  17242-3 0  9995,2 18792  82.6050  17.1653 0012492 278.9755  92.6717 12.65738509743040,12.65738509,0.0012492,LEO
18793,COSMOS 1914,1988,113.7,-1.0,UNK,82.61,Inactive,0,LEO,Russia,Russia/USSR,Unknown,Unknown,Unknown,1 18793U 88002F   25282.73393991  .00000042  00000+0  16731-3 0  9995,2 18793  82.6122  13.2545 0016754 220.1333 298.4620 12.66452990744086,12.6645299,0.0016754,LEO
26985,DIRECTV 4S,2001,1450.65,-1.0,-,5.62,Inactive,0,GSO,French Guiana,USA,Unknown,Unknown,Unknown,1 26985U 01052A   25282.70154684 -.00000237  00000+0  00000+0 0  9993,2 26985   5.6189  74.7043 0005335 119.5128  55.8000  0.99266083 48585,0.99266083,0.0005335,GSO
26987,COSMOS 2382 [GLONASS-M],2001,675.72,-1.0,-,63.92,Inactive,0,MEO,Kazakhstan,Russia/USSR,Unknown,Unknown,Unknown,1 26987U 01053A   25280.50159731  .00000010  00000+0  00000+0 0  9998,2 26987  63.9194  66.4090 0004485 206.4108 149.8228  2.13104797185566,2.13104797,0.0004485,MEO
26988,COSMOS 2381 [GLONASS],2001,675.73,-1.0,-,63.92,Inactive,0,MEO,Kazakhstan,Russia/USSR,Unknown,Unknown,Unknown,1 26988U 01053B   25282.50177924  .00000003  00000+0  00000+0 0  9997,2 26988  63.9229  66.3645 0045276 226.9740 310.3066  2.13103703185687,2.13103703,0.0045276,MEO
26989,COSMOS 2380 [GLONASS],2001,675.73,-1.0,-,63.92,Inactive,0,MEO,Kazakhstan,Russia/USSR,Unknown,Unknown,Unknown,1 26989U 01053C   25278.73940288  .00000021  00000+0  00000+0 0  9999,2 26989  63.9162  66.4507 0005518  44.4869 313.1476  2.13102741185588,2.13102741,0.0005518,MEO
26997,JASON-1,2001,112.14,-1.0,-,66.04,Inactive,0,LEO,USA,USA,Unknown,Unknown,Unknown,1 26997U 01055A   25282.25751770 -.00000057  00000+0  18526-4 0  9995,2 26997  66.0383 237.9065 0006658 267.9428 193.2944 12.84076085116412,12.84076085,0.0006658,LEO
